#dP2022 12  5  6  0  0.00000000      96 __u+U ITR00 EXT  IAC
## 2239 108000.00000000   900.00000000 59918 0.2500000000000
+  118   C06C07C08C09C10C11C12C13C14C16C19C20C21C22C23C24C25
+        C26C27C28C29C30C32C33C34C35C36C37C38C39C40C41C42C43
+        C44C45C46E01E02E03E04E05E07E08E09E10E11E12E13E14E15
+        E18E19E21E24E25E26E27E30E31E33E34E36G01G02G03G04G05
+        G06G07G08G09G10G11G12G13G14G15G16G17G18G19G20G21G22
+        G23G24G25G26G27G29G30G31G32J02J03J04R01R02R03R04R05
+        R07R08R09R11R12R13R14R15R17R18R19R20R21R22R24R25  0
++         9  9 14  9  9  9  8 14  8  8  9  8 10  9  9  8  7
++         9 10 10  8  8  8  9 10  8  8  9 10 10 10  9  8  9
++         8  9  8  8  8  8  8  7  8 11  8  8  8  8  9  7  8
++         8  8  8  8  8  7  8  8  8  9  9  7  8  8  8  8  9
++         8  7  8  8  9  7  8  7  8  9  8  9  8  9  8  8  8
++         8  8  7  7  8  7  8  8  8 11 10 11  7  7  9  9  8
++         7  8 10  8  8  8  9  9  8  8  9 10  7  9  9  9  0
%c M  cc GPS ccc cccc cccc cccc cccc ccccc ccccc ccccc ccccc
%c cc cc ccc ccc cccc cccc cccc cccc ccccc ccccc ccccc ccccc
%f  0.0000000  0.000000000  0.00000000000  0.000000000000000
%f  0.0000000  0.000000000  0.00000000000  0.000000000000000
%i    0    0    0    0      0      0      0      0         0
%i    0    0    0    0      0      0      0      0         0
/* IAC                                ULTRA-RAPID PREDICTION
/* S/V CLOCKS ARE ALIGNED TO GNSS TIME                      
/* G:C1WC2W R:C1PC2P E:C1XC5X C:C2IC6I J:C1CC2S             
/* PCV:IGS14_2233 OL/AL:FES2004  NONE     YN ORB:CoN CLK:CoN
*  2022 12 05 21 45  0.00000000
PC06 -16697.020824  34997.405532 -16862.723125    223.224372
PC07  -2594.221890  36850.936890 -20163.643402    116.650495
PC08  -7852.819604  19437.138469  36583.835693    519.975458
PC09 -11674.384138  33576.613857 -22683.842890   -789.933971
PC10   4039.462852  39095.286469 -14309.041480     56.639593
PC11   5823.041881 -23263.846845 -14219.209003   -252.625001
PC12  17827.830215 -21328.396359   2587.535415    332.455468
PC13    903.922423  22545.171934  35789.881053    150.844812
PC14  -5613.980559 -25988.150468  -8544.981124    238.586543
PC16 -21325.270744  34541.182679 -11753.987459    106.439991
PC19  12164.538259  25099.037351   -664.976708   -906.505875
PC20   -547.075534  23420.949100  15153.581983    815.537570
PC21  13890.711623  -7475.043462 -23010.504278   -929.930338
PC22  18451.602499  12345.738151 -16903.376396   -755.883431
PC23 -26267.383433  -7008.848850   6272.590955   -872.846365
PC24  10102.421399 -14609.590609  21515.135272   -713.837681
PC25 -13187.833812 -14950.700746  19506.751555     35.101550
PC26  24488.086772  -6660.211459  11635.106501    -45.736344
PC27 -20489.781853  15740.078208 -10573.327189     61.830791
PC28 -17639.376186  -1202.008086 -21581.263206     43.902580
PC29   4442.606889  18713.235555  20218.012910     49.811265
PC30 -11454.910612  24728.933453   6049.070829      1.142389
PC32 -13910.440931   7471.813645  23018.148066   -692.903629
PC33 -12272.637636 -25060.882121    580.733995   -898.796541
PC34  10599.992778 -24789.244375  -7169.483187     54.639181
PC35  16971.717124   2340.848285  22017.348762    119.821446
PC36  12200.819299  15401.460410 -19802.701533   -789.205866
PC37 -25289.679554   5250.902015 -10518.540451   -892.899306
PC38 -16203.371615  19435.322772  33722.415561     42.932484
PC39 -22159.522730  35222.686855  -7445.867314     -1.015373
PC40  -7056.370342  33270.733324 -24801.115794     -9.577160
PC41 -18520.027235 -12811.338300  16524.786402   -349.016077
PC42   1440.809927 -22823.069150 -15964.658284   -795.276148
PC43  -3833.064903 -19293.168132 -19790.660960     28.594059
PC44  19971.462756 -16268.650674  10689.732857    135.820166
PC45  26433.719110   6755.969647  -5940.351680    -31.059249
PC46  -7989.012188  15042.386690 -22102.839413    -17.637394
PE01   6015.463792 -16027.744686  24148.059472   -576.564369
PE02  -5704.423863  16216.334063 -24101.427382      6.798686
PE03  -8094.851079  27493.985307   7376.031518   -626.887198
PE04  -4785.026721 -27153.221203  10762.188218     -7.800814
PE05 -16523.400210  11663.591924  21609.404571   -117.920607
PE07  15188.511058  10734.365682 -23028.181365     -4.844367
PE08   4772.314486  27149.228607 -10783.904902      2.120439
PE09 -15005.015104 -10926.641557  23053.726460   -753.651914
PE10 -14462.172562 -10216.484767 -23718.211744   -495.725729
PE11 -23073.875501  -2694.089418 -18351.441283    999.082174
PE12  -4446.823737 -15594.815470 -24758.052579   -315.627050
PE13  22456.855451   3298.367496  19008.540795    430.453223
PE14  12651.122297 -24788.648593   7724.105802     76.300078
PE15   4108.468891  15658.995337  24791.897160    702.882049
PE18 -18012.760857  13559.777403 -16793.266318   -662.435742
PE19   9688.262184 -26181.586337  -9830.121313  -3818.711033
PE21  21164.334732  -1967.934242  20604.542263   -498.649801
PE24 -25172.040247 -14976.205511  -4177.284302   -985.619462
PE25 -21332.386925   1704.828859 -20438.753424   -594.270913
PE26  27326.195040 -11317.100497   1294.261889  -1890.006617
PE27  25431.808683  14296.289560   5057.530866   -456.165071
PE30  13950.431884  22115.174627 -13902.560379  -1054.404248
PE31 -14666.915544 -21984.260827  13330.197338   -509.915850
PE33  16552.865093 -18689.515344 -15891.637938   -455.637291
PE34 -16348.851741  18746.482265  16036.395718    -18.130159
PE36 -27448.832458  10872.663264  -2131.727793   -471.050448
PG01    454.533775 -15375.599697 -21913.782315    241.804516
PG02   3226.582035  15291.585171  22128.447427   -634.526244
PG03  -7892.221071 -20317.044625 -15377.230968   -375.094212
PG04   -235.243263 -25263.267228   8022.023176    -73.981707
PG05  -5371.734233  14589.555029  21346.796101   -106.954603
PG06 -25549.514273   5561.535047  -4828.383976    534.006672
PG07 -15498.977278  -9597.880529  19897.523552    278.468648
PG08   6238.678049 -25401.135366   3196.298374    -97.209804
PG09  -9044.695554 -18440.909815  16734.665380   -258.092527
PG10  22473.532206   9490.899697 -10719.590613    -14.848034
PG11 -22424.954174  12099.759865   7436.178106    -51.538493
PG12   5504.678885  20757.200907 -15969.376518   -312.463174
PG13 -13179.503578  21192.943864   8633.084456    436.863735
PG14 -22234.211427 -11558.971109  -8971.667610    -72.867627
PG15  -2962.301231  26084.303419   2403.589306     -6.574952
PG16  10985.686129 -10134.817366  21674.238249   -526.498507
PG17 -13782.236388  -5238.745078 -21647.341677    683.566439
PG18  17203.773767   7700.668051  18773.394781    -47.918790
PG19 -16187.645693   6820.904688 -20070.908163    246.611089
PG20 -16522.988237   6617.812636  19666.537325    465.500432
PG21   9054.500540 -17234.561661 -17096.470447    154.525798
PG22  15861.251504 -10472.641291 -18056.036263    378.717907
PG23  20967.846119  16423.862739   -398.812412     -0.357699
PG24  -3807.831476  17702.534057 -19639.454416     28.951949
PG25  15326.449414  20357.380537  -8282.350716    399.281554
PG26  19685.367657  -1671.710306  17803.090370    237.693015
PG27  12533.314112 -19011.475882  13103.014915    160.909309
PG29   5636.589595  20514.337948  15807.075395   -572.028660
PG30 -23871.495892  -1105.135262  11948.579624   -535.861714
PG31  25914.732573  -6044.343060  -3435.241564   -202.365017
PG32  15129.399977   1593.329060 -21613.003301   -319.570319
PJ02 -24168.020010  17066.649129 -25439.975520     -0.258480
PJ03 -27831.808145  31809.543002   5002.838075     -6.036510
PJ04 -26436.805059  26558.256453  25348.389626    114.443567
PR01 -10234.615182   4266.104911  22967.877460     19.047312
PR02  -1765.012268  21073.625509  14354.954432    -23.415466
PR03   7347.821066  24344.104612  -2368.445365     68.532026
PR04  11935.516414  14151.657198 -17534.731398    167.486812
PR05  10168.525927  -3730.164075 -23087.437257    104.057761
PR07  -7693.194870 -24071.952308   3280.645503     45.557737
PR08 -12130.400674 -13848.501181  17690.197175    -68.448518
PR09   6789.029783  -9783.952421  22565.696115     91.395201
PR11 -23360.253392  -8785.714475   5309.881153     16.787998
PR12 -21815.051925    543.155713 -13169.060572     23.407376
PR13  -8558.328301   8837.325077 -22361.433187    -29.640452
PR14  11705.494856  12602.607231 -18822.413953     24.062036
PR15  23631.529937   8626.913377  -4206.119778     92.523085
PR17  -1044.219276  14323.722493  21084.603384    584.319275
PR18  12371.977243   2037.668152  22226.462512     55.371708
PR19  19655.005432  -9918.146150  12896.186661   -213.484167
PR20  15825.501815 -18544.190618  -7427.243030    -83.405448
PR21   -184.820222 -13346.150506 -21736.684013   -355.186993
PR22 -13133.047631  -2087.555052 -21738.407895     19.584574
PR24 -14759.315675  19186.555640   8040.026350    130.882614
PR25   1990.364959 -14718.407646 -20734.771100     48.130914
EOF
